NORAD_CAT_ID,OBJECT_NAME,OBJECT_TYPE,EPOCH,MEAN_MOTION,ECCENTRICITY,INCLINATION,RA_OF_ASC_NODE,ARG_OF_PERICENTER,MEAN_ANOMALY,BSTAR,MEAN_MOTION_DOT,MEAN_MOTION_DDOT,TLE_LINE0,TLE_LINE1,TLE_LINE2,SEMIMAJOR_AXIS,PERIOD,APOGEE,PERIGEE,DECAYED
49137.0,STARLINK-3055,PAYLOAD,2021-12-17 06:00:00,15.69757025,0.0003379,69.9972,222.3065,268.9505,113.6365,-0.00067844,-0.00080457,0.0,0 STARLINK-3055,1 49137U 21082H   21351.25001157 -.00080457  00000-0 -67844-3 0  9998,2 49137  69.9972 222.3065 0003379 268.9505 113.6365 15.69757025 14877,6737.729,91.734,361.871,357.3180000000001,0.0
49137.0,STARLINK-3055,PAYLOAD,2021-12-17 22:00:00,15.69711967,0.0003436,69.9972,220.4325,268.4693,280.2932,0.00022241,0.00026381,0.0,0 STARLINK-3055,1 49137U 21082H   21351.91667824  .00026381  00000-0  22241-3 0  9996,2 49137  69.9972 220.4325 0003436 268.4693 280.2932 15.69711967 14979,6737.858,91.737,362.038,357.408,0.0
49137.0,STARLINK-3055,PAYLOAD,2021-12-18 06:00:00,15.6941447,0.0003468,69.999,219.5005,264.7885,7.0915,0.0040702,0.00509345,0.0,0 STARLINK-3055,1 49137U 21082H   21352.25001157  .00509345  00000-0  40702-2 0  9992,2 49137  69.9990 219.5005 0003468 264.7885   7.0915 15.69414470 15033,6738.71,91.754,362.912,358.23800000000006,0.0
49137.0,STARLINK-3055,PAYLOAD,2021-12-18 14:00:01,15.6973692,0.0003368,69.9972,218.5586,262.9232,92.0614,0.000587,0.00070416,0.0,0 STARLINK-3055,1 49137U 21082H   21352.58334491  .00070416  00000-0  58700-3 0  9998,2 49137  69.9972 218.5586 0003368 262.9232  92.0614 15.69736920  3697,6737.7869999999975,91.735,361.921,357.38199999999995,0.0
49137.0,STARLINK-3055,PAYLOAD,2021-12-18 21:40:07,15.69768234,0.00034,69.9977,217.6599,266.5734,93.5072,0.00021045,0.00025005,0.0,0 STARLINK-3055,1 49137U 21082H   21352.90286337  .00025005  00000-0  21045-3 0  9995,2 49137  69.9977 217.6599 0003400 266.5734  93.5072 15.69768234 15140,6737.696999999999,91.733,361.853,357.271,0.0
49137.0,STARLINK-3055,PAYLOAD,2021-12-18 22:00:00,15.6977516,0.0003458,69.9987,217.6217,268.176,169.9545,0.00011245,0.00013247,0.0,0 STARLINK-3055,1 49137U 21082H   21352.91667824  .00013247  00000-0  11245-3 0  9996,2 49137  69.9987 217.6217 0003458 268.1760 169.9545 15.69775160 15136,6737.677,91.733,361.872,357.212,0.0
49137.0,STARLINK-3055,PAYLOAD,2021-12-19 14:00:01,15.69746749,0.000367,69.9991,215.7477,262.1885,342.2441,0.00019066,0.00022608,0.0,0 STARLINK-3055,1 49137U 21082H   21353.58334491  .00022608  00000-0  19066-3 0  9991,2 49137  69.9991 215.7477 0003670 262.1885 342.2441 15.69746749 15240,6737.759,91.735,362.096,357.151,0.0
49137.0,STARLINK-3055,PAYLOAD,2021-12-19 22:00:00,15.69714957,0.0003445,69.9988,214.8107,267.9584,59.6146,-8.3041e-05,-0.00010099,0.0,0 STARLINK-3055,1 49137U 21082H   21353.91667824 -.00010099  00000-0 -83041-4 0  9995,2 49137  69.9988 214.8107 0003445 267.9584  59.6146 15.69714957 15297,6737.85,91.736,362.036,357.39300000000014,0.0
49137.0,STARLINK-3055,PAYLOAD,2021-12-20 06:00:00,15.69747253,0.0003365,69.9986,213.8737,267.8333,142.8303,-0.0001908,-0.00022925,0.0,0 STARLINK-3055,1 49137U 21082H   21354.25001157 -.00022925  00000-0 -19080-3 0  9996,2 49137  69.9986 213.8737 0003365 267.8333 142.8303 15.69747253 15346,6737.757,91.735,361.889,357.355,0.0
49137.0,STARLINK-3055,PAYLOAD,2021-12-20 14:00:01,15.69754209,0.0003392,69.999,212.9369,261.7036,232.0937,0.00064344,0.00077326,0.0,0 STARLINK-3055,1 49137U 21082H   21354.58334491  .00077326  00000-0  64344-3 0  9998,2 49137  69.9990 212.9369 0003392 261.7036 232.0937 15.69754209 15394,6737.736999999999,91.734,361.888,357.31699999999995,0.0
49137.0,STARLINK-3055,PAYLOAD,2021-12-20 22:00:01,15.69793268,0.0003469,69.9991,212.0,268.0632,308.9533,-3.3387e-05,-4.203e-05,0.0,0 STARLINK-3055,1 49137U 21082H   21354.91668981 -.00004203  00000-0 -33387-4 0  9999,2 49137  69.9991 212.0000 0003469 268.0632 308.9533 15.69793268 15455,6737.625,91.732,361.828,357.153,0.0
49137.0,STARLINK-3055,PAYLOAD,2021-12-21 14:00:01,15.69702366,0.0003416,69.9987,210.126,261.8451,121.4187,0.00048683,0.00058195,0.0,0 STARLINK-3055,1 49137U 21082H   21355.58334491  .00058195  00000-0  48683-3 0  9990,2 49137  69.9987 210.1260 0003416 261.8451 121.4187 15.69702366 15552,6737.886,91.737,362.052,357.449,0.0
49137.0,STARLINK-3055,PAYLOAD,2021-12-21 22:00:00,15.69740868,0.0003299,69.9985,209.1891,268.3708,197.9812,-0.00041614,-0.00049579,0.0,0 STARLINK-3055,1 49137U 21082H   21355.91667824 -.00049579  00000-0 -41614-3 0  9991,2 49137  69.9985 209.1891 0003299 268.3708 197.9812 15.69740868 15602,6737.775,91.735,361.86300000000006,357.418,0.0
49137.0,STARLINK-3055,PAYLOAD,2021-12-22 14:00:01,15.69708185,0.0003173,69.9988,207.3151,261.1773,11.34,0.00044605,0.00053282,0.0,0 STARLINK-3055,1 49137U 21082H   21356.58334491  .00053282  00000-0  44605-3 0  9993,2 49137  69.9988 207.3151 0003173 261.1773  11.3400 15.69708185 15718,6737.869000000002,91.737,361.872,357.596,0.0
49137.0,STARLINK-3055,PAYLOAD,2021-12-22 22:00:00,15.69726626,0.0003125,69.999,206.3781,268.1379,87.4833,0.00042072,0.00050264,0.0,0 STARLINK-3055,1 49137U 21082H   21356.91667824  .00050264  00000-0  42072-3 0  9992,2 49137  69.9990 206.3781 0003125 268.1379  87.4833 15.69726626  3705,6737.816,91.736,361.787,357.576,0.0
49137.0,STARLINK-3055,PAYLOAD,2021-12-23 06:00:00,15.69779513,0.0003127,69.9986,205.4411,266.1899,172.5493,-0.0001009,-0.00012254,0.0,0 STARLINK-3055,1 49137U 21082H   21357.25001157 -.00012254  00000-0 -10090-3 0  9995,2 49137  69.9986 205.4411 0003127 266.1899 172.5493 15.69779513 15813,6737.665,91.733,361.637,357.423,0.0
49137.0,STARLINK-3055,PAYLOAD,2021-12-23 14:00:01,15.69826725,0.000335,69.9997,204.5082,265.7694,256.1321,-0.0038589,-0.00439009,0.0,0 STARLINK-3055,1 49137U 21082H   21357.58334491 -.00439009  00000-0 -38589-2 0  9994,2 49137  69.9997 204.5082 0003350 265.7694 256.1321 15.69826725 15867,6737.53,91.73,361.652,357.13800000000015,0.0
49137.0,STARLINK-3055,PAYLOAD,2021-12-23 22:00:00,15.69741808,0.0003403,69.9986,203.5673,269.0842,335.9634,0.00032586,0.00038856,0.0,0 STARLINK-3055,1 49137U 21082H   21357.91667824  .00038856  00000-0  32586-3 0  9995,2 49137  69.9986 203.5673 0003403 269.0842 335.9634 15.69741808 15929,6737.773,91.735,361.931,357.345,0.0
49137.0,STARLINK-3055,PAYLOAD,2021-12-24 06:00:00,15.69759605,0.0003509,69.9984,202.6303,266.8412,61.3336,-0.00062751,-0.00074495,0.0,0 STARLINK-3055,1 49137U 21082H   21358.25001157 -.00074495  00000-0 -62751-3 0  9992,2 49137  69.9984 202.6303 0003509 266.8412  61.3336 15.69759605 15970,6737.722,91.734,361.951,357.223,0.0
49137.0,STARLINK-3055,PAYLOAD,2021-12-24 14:00:01,15.69740341,0.0003558,69.9989,201.6931,262.9207,148.3515,0.00011348,0.00013351,0.0,0 STARLINK-3055,1 49137U 21082H   21358.58334491  .00013351  00000-0  11348-3 0  9996,2 49137  69.9989 201.6931 0003558 262.9207 148.3515 15.69740341 16023,6737.776999999999,91.735,362.039,357.245,0.0
49137.0,STARLINK-3055,PAYLOAD,2021-12-24 22:00:00,15.6971514,0.0003423,69.9991,200.7561,269.05,225.3557,-4.4077e-05,-5.463e-05,0.0,0 STARLINK-3055,1 49137U 21082H   21358.91667824 -.00005463  00000-0 -44077-4 0  9995,2 49137  69.9991 200.7561 0003423 269.0500 225.3557 15.69715140 16076,6737.849,91.736,362.02,357.408,0.0
49137.0,STARLINK-3055,PAYLOAD,2021-12-25 14:00:01,15.69656151,0.0003672,70.0,198.889,265.9664,34.5374,0.0012515,0.00151336,0.0,0 STARLINK-3055,1 49137U 21082H   21359.58334491  .00151336  00000-0  12515-2 0  9999,2 49137  70.0000 198.8890 0003672 265.9664  34.5374 15.69656151 16189,6738.018,91.74,362.357,357.409,0.0
49137.0,STARLINK-3055,PAYLOAD,2021-12-25 22:00:00,15.69763574,0.0003305,69.999,197.9455,270.968,112.8082,0.00016661,0.00019735,0.0,0 STARLINK-3055,1 49137U 21082H   21359.91667824  .00019735  00000-0  16661-3 0  9998,2 49137  69.9990 197.9455 0003305 270.9680 112.8082 15.69763574 16238,6737.71,91.734,361.802,357.349,0.0
49137.0,STARLINK-3055,PAYLOAD,2021-12-26 14:00:01,15.69782831,0.0003627,69.9992,196.0714,263.8526,286.2075,-0.00018957,-0.00022814,0.0,0 STARLINK-3055,1 49137U 21082H   21360.58334491 -.00022814  00000-0 -18957-3 0  9998,2 49137  69.9992 196.0714 0003627 263.8526 286.2075 15.69782831 16331,6737.655,91.732,361.964,357.077,0.0
49137.0,STARLINK-3055,PAYLOAD,2021-12-26 22:00:00,15.69711805,0.0003699,69.9994,195.1342,271.0472,2.1736,0.00026663,0.0003168999999999,0.0,0 STARLINK-3055,1 49137U 21082H   21360.91667824  .00031690  00000-0  26663-3 0  9997,2 49137  69.9994 195.1342 0003699 271.0472   2.1736 15.69711805  3675,6737.859,91.737,362.216,357.231,0.0
49137.0,STARLINK-3055,PAYLOAD,2021-12-27 06:00:00,15.69733126,0.0003681,69.9992,194.1973,267.6933,88.6233,1.4566e-05,1.526e-05,0.0,0 STARLINK-3055,1 49137U 21082H   21361.25001157  .00001526  00000-0  14566-4 0  9991,2 49137  69.9992 194.1973 0003681 267.6933  88.6233 15.69733126 16446,6737.7980000000025,91.735,362.143,357.182,0.0
49137.0,STARLINK-3055,PAYLOAD,2021-12-27 14:00:01,15.69787014,0.000363,69.9994,193.2607,265.4267,173.9863,-0.00038577,-0.00046086,0.0,0 STARLINK-3055,1 49137U 21082H   21361.58334491 -.00046086  00000-0 -38577-3 0  9996,2 49137  69.9994 193.2607 0003630 265.4267 173.9863 15.69787014  3686,6737.643,91.732,361.954,357.06300000000016,0.0
49137.0,STARLINK-3055,PAYLOAD,2021-12-27 22:00:00,15.69705127,0.0003513,69.9991,192.3237,272.1011,250.4749,0.00031054,0.00036955,0.0,0 STARLINK-3055,1 49137U 21082H   21361.91667824  .00036955  00000-0  31054-3 0  9997,2 49137  69.9991 192.3237 0003513 272.1011 250.4749 15.69705127  3683,6737.878000000002,91.737,362.11,357.376,0.0
49137.0,STARLINK-3055,PAYLOAD,2021-12-28 14:00:01,15.69780488,0.00035,69.999,190.4497,265.6234,63.1606,6.5823e-05,7.663e-05,0.0,0 STARLINK-3055,1 49137U 21082H   21362.58334491  .00007663  00000-0  65823-4 0  9998,2 49137  69.9990 190.4497 0003500 265.6234  63.1606 15.69780488 16654,6737.6619999999975,91.733,361.885,357.1690000000001,0.0
